[{"OBJECT_NAME":"STARLINK-30041","OBJECT_ID":"2023-119M","EPOCH":"2026-03-09T22:00:01.999584","MEAN_MOTION":15.15940564,"ECCENTRICITY":0.00012576,"INCLINATION":43.0013,"RA_OF_ASC_NODE":79.6987,"ARG_OF_PERICENTER":273.3411,"MEAN_ANOMALY":241.7822,"EPHEMERIS_TYPE":0,"CLASSIFICATION_TYPE":"U","NORAD_CAT_ID":57613,"ELEMENT_SET_NO":999,"REV_AT_EPOCH":562,"BSTAR":0.06109031,"MEAN_MOTION_DOT":0.01292259,"MEAN_MOTION_DDOT":0},{"OBJECT_NAME":"CZ-6A DEB","OBJECT_ID":"2024-140LQ","EPOCH":"2026-03-09T12:39:56.979648","MEAN_MOTION":14.85929139,"ECCENTRICITY":0.01771612,"INCLINATION":88.9207,"RA_OF_ASC_NODE":273.583,"ARG_OF_PERICENTER":149.2711,"MEAN_ANOMALY":211.9037,"EPHEMERIS_TYPE":0,"CLASSIFICATION_TYPE":"U","NORAD_CAT_ID":60965,"ELEMENT_SET_NO":999,"REV_AT_EPOCH":8358,"BSTAR":0.00081105729,"MEAN_MOTION_DOT":9.447e-5,"MEAN_MOTION_DDOT":0}]
